METAR LFLR 280830Z 32005KT 4000NW VCFG FEW002 14/12 Q1023 BECMG 8000 FEW010=
METAR LFPG 280830Z 03005KT 360V070 9999 FEW006 BKN017 15/12 Q1023 NOSIG=
METAR LFRN 280830Z 32008 1200 R0300 40BCFG 8ST006 06/06 TEMPO 0600=
METAR LFRS 0280830Z 2010 CAVOK 03/M00 1020=
METAR LFML 230730Z 33020G30KT CAVOK 19/10 Q1015 NOSIG=
METAR LFRM 280830Z 22002 8000 20REDZ 3SC013 3SC030 7SC030 7SC036 06/04 1017 NOSIG=
METAR LFRO 292000Z 30015G25KT 7000 -SN BKN008 OVC040 M05/M08 1015 NOSIG=
METAR LFRC 271300Z AUTO 28011KT 9999 // OVC003 15/15 Q1024=
METAR LFRB 280830Z 08008 4000 10BR 7ST008 07/06 1020 NOSIG=